[{"OBJECT_NAME":"YAOGAN-32 A","OBJECT_ID":"2018-077A","EPOCH":"2026-03-09T23:02:56.675616","MEAN_MOTION":14.63036121,"ECCENTRICITY":0.00017694,"INCLINATION":98.1595,"RA_OF_ASC_NODE":98.6551,"ARG_OF_PERICENTER":95.91,"MEAN_ANOMALY":264.2303,"EPHEMERIS_TYPE":0,"CLASSIFICATION_TYPE":"U","NORAD_CAT_ID":43642,"ELEMENT_SET_NO":999,"REV_AT_EPOCH":39533,"BSTAR":0.00019081707,"MEAN_MOTION_DOT":9.32e-6,"MEAN_MOTION_DDOT":0},{"OBJECT_NAME":"SSETI EXPRESS (XO-53)","OBJECT_ID":"2005-043E","EPOCH":"2026-03-09T23:07:31.823328","MEAN_MOTION":14.65252669,"ECCENTRICITY":0.00150516,"INCLINATION":98.2897,"RA_OF_ASC_NODE":208.0015,"ARG_OF_PERICENTER":227.4389,"MEAN_ANOMALY":132.5544,"EPHEMERIS_TYPE":0,"CLASSIFICATION_TYPE":"U","NORAD_CAT_ID":28894,"ELEMENT_SET_NO":999,"REV_AT_EPOCH":8574,"BSTAR":0.00018173831,"MEAN_MOTION_DOT":9.31e-6,"MEAN_MOTION_DDOT":0}]
